OBJECT C                
1 57582U 23117C   25060.19480308  .00017085  00000+0  71795-3 0  9999
2 57582  97.4549 135.6556 0010492 115.2407 244.9919 15.23446999 86211
